start=new Date('2022-05-16T00:00:00.000Z').valueOf();
sats=[{"REV_AT_EPOCH":"130","MEAN_ANOMALY":"327.9021","PERIOD":"91.999","TLE_LINE1":"1 52274U 22041P   22135.91667824 -.00717681  00000-0 -77485-2 0  9990","OBJECT_NAME":"STARLINK-3790","FILE":"3447521","LAUNCH_DATE":"2022-04-21","TIME_SYSTEM":"UTC","NORAD_CAT_ID":"52274","MEAN_ELEMENT_THEORY":"SGP4","EPHEMERIS_TYPE":"0","TLE_LINE2":"2 52274  53.2173 255.0648 0001510  35.5141 327.9021 15.65228651  1308","GP_ID":"203652883","APOAPSIS":"373.603","OBJECT_TYPE":"PAYLOAD","MEAN_MOTION_DOT":"-0.00717681","PERIAPSIS":"371.564","INCLINATION":"53.2173","SEMIMAJOR_AXIS":"6750.718","ECCENTRICITY":"0.00015100","MEAN_MOTION_DDOT":"0.0000000000000","OBJECT_ID":"2022-041P","MEAN_MOTION":"15.65228651","RCS_SIZE":"LARGE","DECAY_DATE":null,"SITE":"AFETR","RA_OF_ASC_NODE":"255.0648","ARG_OF_PERICENTER":"35.5141","EPOCH":"2022-05-15T22:00:00.999936","ELEMENT_SET_NO":"999","BSTAR":"-0.00774850000000","CLASSIFICATION_TYPE":"U","CENTER_NAME":"EARTH","COUNTRY_CODE":"US","REF_FRAME":"TEME"},{"EPOCH":"2022-05-15T22:00:00.999936","ARG_OF_PERICENTER":"39.3015","RA_OF_ASC_NODE":"255.0604","SITE":"AFETR","COUNTRY_CODE":"US","REF_FRAME":"TEME","CLASSIFICATION_TYPE":"U","CENTER_NAME":"EARTH","BSTAR":"-0.00775460000000","ELEMENT_SET_NO":"999","OBJECT_ID":"2022-041Q","MEAN_MOTION_DDOT":"0.0000000000000","ECCENTRICITY":"0.00013950","INCLINATION":"53.2173","SEMIMAJOR_AXIS":"6750.771","OBJECT_TYPE":"PAYLOAD","MEAN_MOTION_DOT":"-0.00717693","PERIAPSIS":"371.694","DECAY_DATE":null,"MEAN_MOTION":"15.65210419","RCS_SIZE":"LARGE","EPHEMERIS_TYPE":"0","NORAD_CAT_ID":"52275","MEAN_ELEMENT_THEORY":"SGP4","APOAPSIS":"373.577","GP_ID":"203652700","TLE_LINE2":"2 52275  53.2173 255.0604 0001395  39.3015 321.3925 15.65210419  1319","MEAN_ANOMALY":"321.3925","REV_AT_EPOCH":"131","TIME_SYSTEM":"UTC","LAUNCH_DATE":"2022-04-21","OBJECT_NAME":"STARLINK-3784","FILE":"3447521","TLE_LINE1":"1 52275U 22041Q   22135.91667824 -.00717693  00000-0 -77546-2 0  9992","PERIOD":"92.000"},{"NORAD_CAT_ID":"52276","MEAN_ELEMENT_THEORY":"SGP4","EPHEMERIS_TYPE":"0","TLE_LINE2":"2 52276  53.2173 255.0671 0001333  42.6082 322.1688 15.65237768  1307","GP_ID":"203652979","APOAPSIS":"373.457","REV_AT_EPOCH":"130","MEAN_ANOMALY":"322.1688","PERIOD":"91.999","TLE_LINE1":"1 52276U 22041R   22135.91667824 -.00717571  00000-0 -77448-2 0  9999","OBJECT_NAME":"STARLINK-3778","FILE":"3447521","LAUNCH_DATE":"2022-04-21","TIME_SYSTEM":"UTC","RA_OF_ASC_NODE":"255.0671","SITE":"AFETR","ARG_OF_PERICENTER":"42.6082","EPOCH":"2022-05-15T22:00:00.999936","ELEMENT_SET_NO":"999","CENTER_NAME":"EARTH","CLASSIFICATION_TYPE":"U","BSTAR":"-0.00774480000000","REF_FRAME":"TEME","COUNTRY_CODE":"US","MEAN_MOTION_DOT":"-0.00717571","OBJECT_TYPE":"PAYLOAD","PERIAPSIS":"371.657","SEMIMAJOR_AXIS":"6750.692","INCLINATION":"53.2173","ECCENTRICITY":"0.00013330","OBJECT_ID":"2022-041R","MEAN_MOTION_DDOT":"0.0000000000000","MEAN_MOTION":"15.65237768","RCS_SIZE":"LARGE","DECAY_DATE":null},{"ARG_OF_PERICENTER":"42.3113","SITE":"AFETR","RA_OF_ASC_NODE":"255.0627","EPOCH":"2022-05-15T22:00:00.999936","REF_FRAME":"TEME","COUNTRY_CODE":"US","BSTAR":"-0.00775210000000","CENTER_NAME":"EARTH","CLASSIFICATION_TYPE":"U","ELEMENT_SET_NO":"999","MEAN_MOTION_DOT":"-0.00717716","OBJECT_TYPE":"PAYLOAD","PERIAPSIS":"371.689","OBJECT_ID":"2022-041S","MEAN_MOTION_DDOT":"0.0000000000000","ECCENTRICITY":"0.00013630","INCLINATION":"53.2173","SEMIMAJOR_AXIS":"6750.744","MEAN_MOTION":"15.65219546","RCS_SIZE":"LARGE","DECAY_DATE":null,"NORAD_CAT_ID":"52277","MEAN_ELEMENT_THEORY":"SGP4","EPHEMERIS_TYPE":"0","GP_ID":"203652449","TLE_LINE2":"2 52277  53.2173 255.0627 0001363  42.3113 319.7439 15.65219546  1315","APOAPSIS":"373.530","REV_AT_EPOCH":"131","MEAN_ANOMALY":"319.7439","OBJECT_NAME":"STARLINK-3787","FILE":"3447521","TLE_LINE1":"1 52277U 22041S   22135.91667824 -.00717716  00000-0 -77521-2 0  9993","PERIOD":"92.000","TIME_SYSTEM":"UTC","LAUNCH_DATE":"2022-04-21"},{"NORAD_CAT_ID":"52278","MEAN_ELEMENT_THEORY":"SGP4","EPHEMERIS_TYPE":"0","GP_ID":"203652537","TLE_LINE2":"2 52278  53.2173 255.0709 0001147  55.5887 309.8685 15.65242427  1307","APOAPSIS":"373.318","REV_AT_EPOCH":"130","MEAN_ANOMALY":"309.8685","FILE":"3447521","OBJECT_NAME":"STARLINK-3780","TLE_LINE1":"1 52278U 22041T   22135.91667824 -.00717547  00000-0 -77435-2 0  9990","PERIOD":"91.999","TIME_SYSTEM":"UTC","LAUNCH_DATE":"2022-04-21","ARG_OF_PERICENTER":"55.5887","RA_OF_ASC_NODE":"255.0709","SITE":"AFETR","EPOCH":"2022-05-15T22:00:00.999936","COUNTRY_CODE":"US","REF_FRAME":"TEME","CENTER_NAME":"EARTH","BSTAR":"-0.00774350000000","CLASSIFICATION_TYPE":"U","ELEMENT_SET_NO":"999","PERIAPSIS":"371.769","OBJECT_TYPE":"PAYLOAD","MEAN_MOTION_DOT":"-0.00717547","OBJECT_ID":"2022-041T","MEAN_MOTION_DDOT":"0.0000000000000","ECCENTRICITY":"0.00011470","INCLINATION":"53.2173","SEMIMAJOR_AXIS":"6750.679","MEAN_MOTION":"15.65242427","RCS_SIZE":"LARGE","DECAY_DATE":null},{"SEMIMAJOR_AXIS":"6750.731","INCLINATION":"53.2173","MEAN_MOTION_DDOT":"0.0000000000000","OBJECT_ID":"2022-041U","ECCENTRICITY":"0.00014040","OBJECT_TYPE":"PAYLOAD","PERIAPSIS":"371.648","MEAN_MOTION_DOT":"-0.00717701","DECAY_DATE":null,"MEAN_MOTION":"15.65224139","RCS_SIZE":"LARGE","EPOCH":"2022-05-15T22:00:00.999936","RA_OF_ASC_NODE":"255.0651","SITE":"AFETR","ARG_OF_PERICENTER":"39.5354","CLASSIFICATION_TYPE":"U","CENTER_NAME":"EARTH","BSTAR":"-0.00775040000000","ELEMENT_SET_NO":"999","COUNTRY_CODE":"US","REF_FRAME":"TEME","MEAN_ANOMALY":"323.2002","REV_AT_EPOCH":"131","TIME_SYSTEM":"UTC","LAUNCH_DATE":"2022-04-21","PERIOD":"92.000","FILE":"3447521","OBJECT_NAME":"STARLINK-3686","TLE_LINE1":"1 52279U 22041U   22135.91667824 -.00717701  00000-0 -77504-2 0  9990","EPHEMERIS_TYPE":"0","MEAN_ELEMENT_THEORY":"SGP4","NORAD_CAT_ID":"52279","APOAPSIS":"373.544","GP_ID":"203652356","TLE_LINE2":"2 52279  53.2173 255.0651 0001404  39.5354 323.2002 15.65224139  1315"},{"EPHEMERIS_TYPE":"0","NORAD_CAT_ID":"52280","MEAN_ELEMENT_THEORY":"SGP4","APOAPSIS":"373.538","TLE_LINE2":"2 52280  53.2173 255.0822 0001532  34.0661 333.4315 15.65256320  1306","GP_ID":"203653012","MEAN_ANOMALY":"333.4315","REV_AT_EPOCH":"130","LAUNCH_DATE":"2022-04-21","TIME_SYSTEM":"UTC","TLE_LINE1":"1 52280U 22041V   22135.91667824 -.00717593  00000-0 -77388-2 0  9991","OBJECT_NAME":"STARLINK-3764","FILE":"3447521","PERIOD":"91.998","EPOCH":"2022-05-15T22:00:00.999936","ARG_OF_PERICENTER":"34.0661","SITE":"AFETR","RA_OF_ASC_NODE":"255.0822","REF_FRAME":"TEME","COUNTRY_CODE":"US","ELEMENT_SET_NO":"999","BSTAR":"-0.00773880000000","CLASSIFICATION_TYPE":"U","CENTER_NAME":"EARTH","ECCENTRICITY":"0.00015320","MEAN_MOTION_DDOT":"0.0000000000000","OBJECT_ID":"2022-041V","SEMIMAJOR_AXIS":"6750.639","INCLINATION":"53.2173","OBJECT_TYPE":"PAYLOAD","MEAN_MOTION_DOT":"-0.00717593","PERIAPSIS":"371.469","DECAY_DATE":null,"MEAN_MOTION":"15.65256320","RCS_SIZE":"LARGE"},{"COUNTRY_CODE":"US","REF_FRAME":"TEME","CENTER_NAME":"EARTH","CLASSIFICATION_TYPE":"U","BSTAR":"-0.00774780000000","ELEMENT_SET_NO":"999","EPOCH":"2022-05-15T22:00:00.999936","ARG_OF_PERICENTER":"37.7281","RA_OF_ASC_NODE":"255.0674","SITE":"AFETR","DECAY_DATE":null,"MEAN_MOTION":"15.65233294","RCS_SIZE":"LARGE","OBJECT_ID":"2022-041W","MEAN_MOTION_DDOT":"0.0000000000000","ECCENTRICITY":"0.00014620","INCLINATION":"53.2173","SEMIMAJOR_AXIS":"6750.705","MEAN_MOTION_DOT":"-0.00717734","OBJECT_TYPE":"PAYLOAD","PERIAPSIS":"371.583","APOAPSIS":"373.557","GP_ID":"203652795","TLE_LINE2":"2 52281  53.2173 255.0674 0001462  37.7281 326.3684 15.65233294  1307","EPHEMERIS_TYPE":"0","NORAD_CAT_ID":"52281","MEAN_ELEMENT_THEORY":"SGP4","TIME_SYSTEM":"UTC","LAUNCH_DATE":"2022-04-21","OBJECT_NAME":"STARLINK-3779","FILE":"3447521","TLE_LINE1":"1 52281U 22041W   22135.91667824 -.00717734  00000-0 -77478-2 0  9999","PERIOD":"91.999","MEAN_ANOMALY":"326.3684","REV_AT_EPOCH":"130"},{"NORAD_CAT_ID":"52282","MEAN_ELEMENT_THEORY":"SGP4","EPHEMERIS_TYPE":"0","GP_ID":"203622555","TLE_LINE2":"2 52282  53.2140 254.8870 0002552  15.1932  68.3162 15.73237446  5042","APOAPSIS":"351.370","REV_AT_EPOCH":"504","MEAN_ANOMALY":"68.3162","OBJECT_NAME":"STARLINK-3783","FILE":"3447304","TLE_LINE1":"1 52282U 22041X   22135.91667824 -.00062376  00000-0 -44250-3 0  9998","PERIOD":"91.531","TIME_SYSTEM":"UTC","LAUNCH_DATE":"2022-04-21","ARG_OF_PERICENTER":"15.1932","RA_OF_ASC_NODE":"254.8870","SITE":"AFETR","EPOCH":"2022-05-15T22:00:00.999936","REF_FRAME":"TEME","COUNTRY_CODE":"US","BSTAR":"-0.00044250000000","CLASSIFICATION_TYPE":"U","CENTER_NAME":"EARTH","ELEMENT_SET_NO":"999","MEAN_MOTION_DOT":"-0.00062376","OBJECT_TYPE":"PAYLOAD","PERIAPSIS":"347.936","MEAN_MOTION_DDOT":"0.0000000000000","OBJECT_ID":"2022-041X","ECCENTRICITY":"0.00025520","SEMIMAJOR_AXIS":"6727.788","INCLINATION":"53.2140","RCS_SIZE":"LARGE","MEAN_MOTION":"15.73237446","DECAY_DATE":null},{"ELEMENT_SET_NO":"999","BSTAR":"-0.00774210000000","CLASSIFICATION_TYPE":"U","CENTER_NAME":"EARTH","COUNTRY_CODE":"US","REF_FRAME":"TEME","EPOCH":"2022-05-15T22:00:00.999936","SITE":"AFETR","RA_OF_ASC_NODE":"255.0749","ARG_OF_PERICENTER":"38.4278","DECAY_DATE":null,"MEAN_MOTION":"15.65247048","RCS_SIZE":"LARGE","SEMIMAJOR_AXIS":"6750.665","INCLINATION":"53.2173","ECCENTRICITY":"0.00014250","MEAN_MOTION_DDOT":"0.0000000000000","OBJECT_ID":"2022-041Y","PERIAPSIS":"371.568","OBJECT_TYPE":"PAYLOAD","MEAN_MOTION_DOT":"-0.00717606","APOAPSIS":"373.492","TLE_LINE2":"2 52283  53.2173 255.0749 0001425  38.4278 327.7096 15.65247048  1309","GP_ID":"203652701","EPHEMERIS_TYPE":"0","NORAD_CAT_ID":"52283","MEAN_ELEMENT_THEORY":"SGP4","LAUNCH_DATE":"2022-04-21","TIME_SYSTEM":"UTC","PERIOD":"91.998","TLE_LINE1":"1 52283U 22041Y   22135.91667824 -.00717606  00000-0 -77421-2 0  9997","OBJECT_NAME":"STARLINK-3789","FILE":"3447521","MEAN_ANOMALY":"327.7096","REV_AT_EPOCH":"130"}];
